STARLINK-32104          
1 59695U 24086P   26067.99879832 -.00000399  00000+0 -49896-5 0  9993
2 59695  43.0055  60.5074 0000825 257.1270 102.9489 15.27576384104044
FLOCK 4G-8              
1 62613U 25009E   26068.72381419  .00013559  00000+0  50438-3 0  9996
2 62613  97.4045 151.2834 0003050 315.2538  44.8455 15.27623414 63721
